ONEWEB-0158             
1 48054U 21025N   25109.35235925  .00000306  00000+0  80393-3 0  9996
2 48054  87.8979  44.4333 0002038  82.1692 277.9669 13.13471166197997
ONEWEB-0157             
1 48055U 21025P   25109.30156251 -.00000279  00000+0 -79843-3 0  9995
2 48055  87.8979  44.4549 0001678  92.9787 267.1535 13.13467229197921
ONEWEB-0162             
1 48056U 21025Q   25109.27772680  .00000271  00000+0  70616-3 0  9991
2 48056  87.8980  44.4577 0001915  82.3146 277.8200 13.13469958197895
ONEWEB-0155             
1 48057U 21025R   25109.36081815  .00000133  00000+0  33018-3 0  9997
2 48057  87.8981  44.4494 0001696  76.3138 283.8180 13.13468963198042
ONEWEB-0149             
1 48058U 21025S   25109.30666046  .00000068  00000+0  15132-3 0  9991
2 48058  87.8974  44.4552 0001887  86.9538 273.1807 13.13467908197846
ONEWEB-0148             
1 48059U 21025T   25109.34557800  .00000379  00000+0  10038-2 0  9997
2 48059  87.8982  44.4685 0002287  95.8141 264.3249 13.13472898197977
ONEWEB-0160             
1 48060U 21025U   25109.36252034  .00000071  00000+0  16059-3 0  9991
2 48060  87.8984  44.4619 0002490  62.0796 298.0585 13.13468440197926
ONEWEB-0163             
1 48061U 21025V   25109.80433967  .00000361  00000+0  95239-3 0  9996
2 48061  87.8981  44.3574 0001715  86.3100 273.8226 13.13472295198107
